OSCAR 7 (AO-7)          
1 07530U 74089B   26196.06197682 -.00000031  00000+0  94584-4 0  9994
2 07530 101.9905 209.5990 0012661  78.5887 296.7696 12.53698579364019
PHASE 3B (AO-10)        
1 14129U 83058B   26194.10401075 -.00000187  00000+0  00000+0 0  9996
2 14129  25.9345 215.2934 6002223 122.7887 309.2966  2.05872336296023
UOSAT 2 (UO-11)         
1 14781U 84021B   26196.14274884  .00000557  00000+0  62162-4 0  9995
2 14781  97.8076 161.4091 0009231  91.6192 268.6083 14.90848818261299
LUSAT (LO-19)           
1 20442U 90005G   26196.01960736  .00000040  00000+0  31121-4 0  9997
2 20442  98.8847 218.5912 0012533 121.8635 238.3770 14.34130719906385
EYESAT A (AO-27)        
1 22825U 93061C   26196.17910514  .00000039  00000+0  31759-4 0  9990
2 22825  98.6868 263.5806 0008763  25.9041 334.2579 14.30949052711000
ITAMSAT (IO-26)         
1 22826U 93061D   26196.15016184  .00000042  00000+0  32789-4 0  9997
2 22826  98.6816 263.4720 0008968   9.5131 350.6220 14.31376655711316
RADIO ROSTO (RS15)      
1 23439U 94085A   26196.14173270 -.00000037  00000+0  16884-3 0  9996
2 23439  64.8151 258.0072 0156917 358.7184   1.3318 11.27583539299052
JAS-2 (FO-29)           
1 24278U 96046B   26196.10988069  .00000009  00000+0  43919-4 0  9991
2 24278  98.5219  41.1544 0350365  24.1621 337.5517 13.53275673476949
TECHSAT 1B (GO-32)      
1 25397U 98043D   26195.95080966  .00000005  00000+0  22291-4 0  9990
2 25397  99.0085 189.4117 0002175 114.9231 245.2173 14.24433340455282
ISS (ZARYA)             
1 25544U 98067A   26196.12126347  .00002630  00000+0  55898-4 0  9999
2 25544  51.6305 161.8506 0007251 303.7745  56.2552 15.49005161576086
PCSAT (NO-44)           
1 26931U 01043C   26196.16722391  .00000006  00000+0  33087-4 0  9994
2 26931  67.0495 171.9018 0005924 266.6152  93.4272 14.31964983294458
SAUDISAT 1C (SO-50)     
1 27607U 02058C   26196.00432816  .00000376  00000+0  62404-4 0  9990
2 27607  64.5518  42.9159 0074537 257.3021 101.9746 14.83098196268585
CUTE-1 (CO-55)          
1 27844U 03031E   26195.99572294  .00000138  00000+0  78473-4 0  9996
2 27844  98.6743 204.2053 0010829 103.2306 257.0082 14.24351484195639
CUBESAT XI-IV (CO-57)   
1 27848U 03031J   26195.99815787  .00000112  00000+0  68348-4 0  9999
2 27848  98.6775 203.8980 0010551 120.0621 240.1606 14.23634469195339
MOZHAETS 4 (RS22)       
1 27939U 03042A   26196.20146483  .00000212  00000+0  40968-4 0  9996
2 27939  98.3468  21.3531 0011199 173.2478 310.6201 14.73513599219673
CUBESAT XI-V            
1 28895U 05043F   26195.98814645  .00000669  00000+0  11312-3 0  9993
2 28895  98.3014 352.1993 0015246 115.8586 244.4194 14.72702031105846
CUTE-1.7+APD II (CO-65) 
1 32785U 08021C   26196.15472164  .00002792  00000+0  17739-3 0  9999
2 32785  97.8292 178.1627 0007019 299.6614  60.3915 15.09700819989415
SEEDS II (CO-66)        
1 32791U 08021J   26195.93800235  .00010608  00000+0  32841-3 0  9991
2 32791  97.7521 195.1811 0003030 156.6912 203.4468 15.33661053991545
YUBILEINY (RS30)        
1 32953U 08025A   26196.18531061  .00000051  00000+0  29898-3 0  9990
2 32953  82.5057 338.0223 0018596 249.0180 110.8910 12.43180872823172
KKS-1 (KISEKI)          
1 33499U 09002H   26196.11950204  .00000601  00000+0  80424-4 0  9993
2 33499  98.1174 119.0043 0007426 189.2056 170.9022 14.83189044940330
SWISSCUBE               
1 35932U 09051B   26195.74040393  .00000468  00000+0  10206-3 0  9999
2 35932  98.4008 104.1063 0007823 120.2894 239.9082 14.62530263893188
BEESAT-1                
1 35933U 09051C   26195.69579758  .00000389  00000+0  87927-4 0  9993
2 35933  98.3936 103.6385 0006092 131.1262 229.0465 14.61761410893203
ITUPSAT1                
1 35935U 09051E   26196.19038705  .00000349  00000+0  82054-4 0  9995
2 35935  98.4018 103.3025 0008086 143.1681 217.0076 14.60478742892822
XIWANG-1 (HOPE-1)       
1 36122U 09072B   26196.13555575  .00000261  00000+0  79887-3 0  9992
2 36122 100.4035 149.5233 0007542 164.7610 195.3731 13.16441593796681
O/OREOS (USA 219)       
1 37224U 10062C   26195.92052003  .00001059  00000+0  10554-3 0  9993
2 37224  71.9697  17.5110 0013967   5.6048 354.5276 14.93851045120783
JUGNU                   
1 37839U 11058B   26196.03820899  .00000342  00000+0  39232-4 0  9999
2 37839  19.9594 139.2171 0018563  24.7595  57.8710 14.13783475762970
SRMSAT                  
1 37841U 11058D   26196.20941029  .00000337  00000+0  39130-4 0  9991
2 37841  19.9709 249.8602 0011779 151.3491 247.8905 14.11581103761789
STRAND-1                
1 39090U 13009E   26196.04381676  .00000126  00000+0  56627-4 0  9991
2 39090  98.3934  15.5943 0009402 141.5096 218.6763 14.37178836701062
ZACUBE-1 (TSHEPISOSAT)  
1 39417U 13066B   26196.20129191  .00001206  00000+0  96730-4 0  9996
2 39417  97.8008 158.6764 0044024 155.1861 205.1493 15.01328658684939
GOMX-1                  
1 39430U 13066Q   26196.17122228  .00000706  00000+0  11273-3 0  9993
2 39430  97.6467  34.8679 0128255 348.2912  11.5319 14.69542762674024
